OBJECT_NAME,OBJECT_ID,EPOCH,MEAN_MOTION,ECCENTRICITY,INCLINATION,RA_OF_ASC_NODE,ARG_OF_PERICENTER,MEAN_ANOMALY,EPHEMERIS_TYPE,CLASSIFICATION_TYPE,NORAD_CAT_ID,ELEMENT_SET_NO,REV_AT_EPOCH,BSTAR,MEAN_MOTION_DOT,MEAN_MOTION_DDOT
ATLAS CENTAUR 2,1963-047A,2026-06-11T23:31:20.377344,14.12508125,.0545975,30.3563,28.5130,191.5903,167.1662,0,U,694,999,14496,.13646971E-3,.1236E-4,0
THOR AGENA D R/B,1964-002A,2026-06-12T01:31:39.178560,14.34063738,.00325823,99.1154,181.5192,345.6841,14.3416,0,U,733,999,25182,.72599574E-4,.155E-5,0
SL-3 R/B,1964-053B,2026-06-12T01:27:22.031424,14.61424467,.00810899,65.0776,54.5443,262.7219,96.4658,0,U,877,999,28058,.38669283E-4,.74E-6,0
SL-8 R/B,1967-045B,2026-06-12T04:08:38.453856,14.45680254,.0063638,74.0093,171.6243,157.3186,203.0807,0,U,2802,999,10267,.66462598E-4,.213E-5,0
SL-8 R/B,1968-040B,2026-06-12T06:14:24.015552,15.03792893,.00259762,74.0297,120.3670,274.3609,85.4612,0,U,3230,999,10422,.1751044E-3,.238E-4,0
OAO 2,1968-110A,2026-06-12T02:06:06.218208,14.47349849,.00061336,34.9933,98.1526,237.1794,122.8306,0,U,3597,999,3278,.45184396E-4,.149E-5,0
ISIS 1,1969-009A,2026-06-11T04:09:00.742464,11.30433155,.17060649,88.4423,145.0606,260.3817,80.1256,0,U,3669,999,35909,.44833056E-4,.6E-6,0
SERT 2,1970-009A,2026-06-12T06:16:12.186624,13.58738824,.00040218,99.2843,101.2388,289.0292,199.1104,0,U,4327,999,79273,.28190132E-4,-.21E-6,0
SL-3 R/B,1971-028B,2026-06-12T05:02:19.888224,15.69279526,.0013796,81.2326,294.5690,298.5388,61.4480,0,U,5118,999,346,.45555384E-3,.53621E-3,0
ASTEX 1,1971-089A,2026-06-12T02:33:18.938880,14.50847643,.00175833,92.6998,182.2195,121.1000,239.1934,0,U,5560,999,87599,.1029282E-3,.406E-5,0
SL-8 R/B,1971-119B,2026-06-12T00:19:50.598912,14.39474702,.05438031,73.8878,359.1607,306.1709,49.0284,0,U,5730,999,66905,.16265609E-3,.3137E-4,0
OAO 3 (COPERNICUS),1972-065A,2026-06-12T04:01:23.098944,14.60057663,.00070625,35.0049,119.0054,217.5316,159.2869,0,U,6153,999,86001,.59115879E-4,.268E-5,0
ATLAS CENTAUR R/B,1972-065B,2026-06-12T03:26:48.932160,14.77910632,.00327954,35.0009,112.1092,85.5510,274.8936,0,U,6155,999,85524,.12795317E-3,.92E-5,0
SL-8 R/B,1975-112B,2026-06-12T05:47:29.010336,14.38243950,.00168612,74.0595,204.9727,272.4898,87.4325,0,U,8459,999,64546,.75567655E-4,.204E-5,0
SL-3 R/B,1977-057B,2026-06-12T05:44:20.872608,15.47783094,.00055284,97.5832,339.5415,307.2723,52.8022,0,U,10114,999,68294,.22485902E-3,.11574E-3,0
SEASAT 1,1978-064A,2026-06-12T06:13:36.927552,14.46239896,.00019572,108.0166,323.9449,240.5304,119.5646,0,U,10967,999,52018,.11210109E-3,.264E-5,0
SL-14 R/B,1979-011B,2026-06-12T01:53:09.991968,14.92009526,.0017509,82.5240,7.0028,101.1391,259.1798,0,U,11267,999,54285,.43558464E-4,.469E-5,0
SL-8 R/B,1979-089B,2026-06-12T06:44:06.609984,14.42402041,.00148977,74.0694,275.9401,61.6805,298.5852,0,U,11574,999,44974,.68750932E-4,.201E-5,0
SL-14 R/B,1980-005B,2026-06-12T05:18:02.039616,14.91025218,.00150293,82.5143,217.5512,202.8216,157.2337,0,U,11672,999,49057,.4051063E-4,.427E-5,0
SL-8 R/B,1981-003B,2026-06-12T04:41:43.413504,15.14074019,.02504707,82.9370,202.4090,208.6266,150.1029,0,U,12139,999,32896,.41740277E-3,.16962E-3,0
SL-3 R/B,1981-046B,2026-06-12T04:47:33.762912,15.44095933,.0018988,81.2294,176.0765,54.2957,306.0051,0,U,12465,999,45300,.25761157E-3,.11891E-3,0
SL-3 R/B,1981-103B,2026-06-12T06:07:59.729952,15.22244493,.00121042,81.1581,102.4260,334.0812,25.9812,0,U,12904,999,98761,.21021099E-3,.4867E-4,0
SL-3 R/B,1982-013B,2026-06-12T05:29:22.961472,15.22757459,.00210333,81.1747,49.8781,218.1078,141.8668,0,U,13068,999,41873,.15843304E-3,.3746E-4,0
SL-3 R/B,1982-039B,2026-06-12T06:22:11.128512,15.10509288,.00294452,81.1431,106.7735,12.4149,347.7795,0,U,13154,999,39591,.19864722E-3,.3329E-4,0
SL-3 R/B,1982-079B,2026-06-12T06:19:03.243072,15.25749128,.00233115,81.1466,81.3106,202.3490,157.6730,0,U,13403,999,39211,.18162078E-3,.4696E-4,0
SL-14 R/B,1982-092B,2026-06-12T05:12:35.466624,14.86744585,.00200883,82.5685,52.9542,352.1401,126.2002,0,U,13553,999,34297,.39986139E-4,.382E-5,0
SL-3 R/B,1983-010B,2026-06-12T06:42:19.240704,15.49114514,.00157804,81.1024,246.0078,78.8946,281.4074,0,U,13819,999,37257,.26507136E-3,.14509E-3,0
SL-3 R/B,1983-075B,2026-06-12T06:17:25.071072,15.40406344,.00189582,97.6102,171.5652,248.2061,111.7168,0,U,14208,999,34470,.24806152E-3,.10003E-3,0
COSMOS 1536,1984-013A,2026-06-12T01:03:59.021568,15.24999926,.00129667,82.5451,13.9681,315.5227,44.4969,0,U,14699,999,28699,.19835199E-3,.4991E-4,0
SL-14 R/B,1984-027B,2026-06-12T05:34:27.253632,14.86056210,.00185993,82.5409,156.3638,25.1563,335.0556,0,U,14820,999,26167,.4546127E-4,.423E-5,0
