ATLAS CENTAUR 2         
1 00694U 63047A   26162.98009696  .00001236  00000+0  13647-3 0  9998
2 00694  30.3563  28.5130 0545975 191.5903 167.1662 14.12508125144965
THOR AGENA D R/B        
1 00733U 64002A   26163.06364790  .00000155  00000+0  72600-4 0  9997
2 00733  99.1154 181.5192 0032582 345.6841  14.3416 14.34063738251828
SL-3 R/B                
1 00877U 64053B   26163.06067166  .00000074  00000+0  38669-4 0  9996
2 00877  65.0776  54.5443 0081089 262.7219  96.4658 14.61424467280585
SL-8 R/B                
1 02802U 67045B   26163.17266729  .00000213  00000+0  66463-4 0  9996
2 02802  74.0093 171.6243 0063638 157.3186 203.0807 14.45680254102673
SL-8 R/B                
1 03230U 68040B   26163.26000018  .00002380  00000+0  17510-3 0  9990
2 03230  74.0297 120.3670 0025976 274.3609  85.4612 15.03792893104220
OAO 2                   
1 03597U 68110A   26163.08757197  .00000149  00000+0  45184-4 0  9991
2 03597  34.9933  98.1526 0006133 237.1794 122.8306 14.47349849 32789
ISIS 1                  
1 03669U 69009A   26162.17292526  .00000060  00000+0  44833-4 0  9990
2 03669  88.4423 145.0606 1706064 260.3817  80.1256 11.30433155359092
SERT 2                  
1 04327U 70009A   26163.26125216 -.00000021  00000+0  28190-4 0  9992
2 04327  99.2843 101.2388 0004021 289.0292 199.1104 13.58738824792737
SL-3 R/B                
1 05118U 71028B   26163.20995241  .00053621  00000+0  45555-3 0  9996
2 05118  81.2326 294.5690 0013796 298.5388  61.4480 15.69279526  3461
ASTEX 1                 
1 05560U 71089A   26163.10646920  .00000406  00000+0  10293-3 0  9994
2 05560  92.6998 182.2195 0017583 121.1000 239.1934 14.50847643875999
SL-8 R/B                
1 05730U 71119B   26163.01378008  .00003137  00000+0  16266-3 0  9996
2 05730  73.8878 359.1607 0543803 306.1709  49.0284 14.39474702669052
OAO 3 (COPERNICUS)      
1 06153U 72065A   26163.16762846  .00000268  00000+0  59116-4 0  9994
2 06153  35.0049 119.0054 0007062 217.5316 159.2869 14.60057663860011
ATLAS CENTAUR R/B       
1 06155U 72065B   26163.14362190  .00000920  00000+0  12795-3 0  9998
2 06155  35.0009 112.1092 0032795  85.5510 274.8936 14.77910632855245
SL-8 R/B                
1 08459U 75112B   26163.24130799  .00000204  00000+0  75568-4 0  9995
2 08459  74.0595 204.9727 0016861 272.4898  87.4325 14.38243950645464
SL-3 R/B                
1 10114U 77057B   26163.23913047  .00011574  00000+0  22486-3 0  9992
2 10114  97.5832 339.5415 0005528 307.2723  52.8022 15.47783094682943
SEASAT 1                
1 10967U 78064A   26163.25945518  .00000264  00000+0  11210-3 0  9994
2 10967 108.0166 323.9449 0001957 240.5304 119.5646 14.46239896520181
SL-14 R/B               
1 11267U 79011B   26163.07858787  .00000469  00000+0  43558-4 0  9990
2 11267  82.5240   7.0028 0017509 101.1391 259.1798 14.92009526542858
SL-8 R/B                
1 11574U 79089B   26163.28063206  .00000201  00000+0  68751-4 0  9999
2 11574  74.0694 275.9401 0014897  61.6805 298.5852 14.42402041449742
SL-14 R/B               
1 11672U 80005B   26163.22085694  .00000427  00000+0  40511-4 0  9991
2 11672  82.5143 217.5512 0015029 202.8216 157.2337 14.91025218490579
SL-8 R/B                
1 12139U 81003B   26163.19564136  .00016962  00000+0  41740-3 0  9993
2 12139  82.9370 202.4090 0250470 208.6266 150.1029 15.14074019328960
SL-3 R/B                
1 12465U 81046B   26163.19969633  .00011891  00000+0  25761-3 0  9994
2 12465  81.2294 176.0765 0018988  54.2957 306.0051 15.44095933453004
SL-3 R/B                
1 12904U 81103B   26163.25555243  .00004867  00000+0  21021-3 0  9991
2 12904  81.1581 102.4260 0012104 334.0812  25.9812 15.22244493987610
SL-3 R/B                
1 13068U 82013B   26163.22873798  .00003746  00000+0  15843-3 0  9999
2 13068  81.1747  49.8781 0021033 218.1078 141.8668 15.22757459418735
SL-3 R/B                
1 13154U 82039B   26163.26540658  .00003329  00000+0  19865-3 0  9998
2 13154  81.1431 106.7735 0029445  12.4149 347.7795 15.10509288395916
SL-3 R/B                
1 13403U 82079B   26163.26323198  .00004696  00000+0  18162-3 0  9994
2 13403  81.1466  81.3106 0023311 202.3490 157.6730 15.25749128392117
SL-14 R/B               
1 13553U 82092B   26163.21707716  .00000382  00000+0  39986-4 0  9998
2 13553  82.5685  52.9542 0020088 352.1401 126.2002 14.86744585342974
SL-3 R/B                
1 13819U 83010B   26163.27938936  .00014509  00000+0  26507-3 0  9990
2 13819  81.1024 246.0078 0015780  78.8946 281.4074 15.49114514372575
SL-3 R/B                
1 14208U 83075B   26163.26209573  .00010003  00000+0  24806-3 0  9996
2 14208  97.6102 171.5652 0018958 248.2061 111.7168 15.40406344344707
COSMOS 1536             
1 14699U 84013A   26163.04443312  .00004991  00000+0  19835-3 0  9995
2 14699  82.5451  13.9681 0012966 315.5227  44.4969 15.24999926286999
SL-14 R/B               
1 14820U 84027B   26163.23225988  .00000423  00000+0  45461-4 0  9995
2 14820  82.5409 156.3638 0018599  25.1563 335.0556 14.86056210261673
